{
  "type": "FeatureCollection",
  "features": [
    {
      "type": "Feature",
      "properties": {
        "norad_id": 59626,
        "name": "LEGION 2",
        "group": "resource",
        "lat": -78.60665828879954,
        "lon": 104.5412506565469,
        "alt_km": 519.8464575467833,
        "timestamp": "2025-12-14T20:40:31.425758+00:00",
        "meta_object_name": "LEGION 2",
        "meta_object_id": "2024-081B",
        "meta_epoch": "2025-12-14T08:21:54.277632",
        "meta_mean_motion": 15.16514772,
        "meta_eccentricity": 0.00056535,
        "meta_inclination": 97.5218,
        "meta_ra_of_asc_node": 63.0605,
        "meta_arg_of_pericenter": 286.8729,
        "meta_mean_anomaly": 73.1884,
        "meta_ephemeris_type": 0,
        "meta_classification_type": "U",
        "meta_norad_cat_id": 59626,
        "meta_element_set_no": 999,
        "meta_rev_at_epoch": 8952,
        "meta_bstar": 0.00030597139,
        "meta_mean_motion_dot": 5.898e-05,
        "meta_mean_motion_ddot": 0,
        "tle_line1": "1 59626U 24081B   25348.34854488  .00005898  00000+0  30597-3 0  9995",
        "tle_line2": "2 59626  97.5218  63.0605 0005653 286.8729  73.1884 15.16514772 89527"
      },
      "geometry": {
        "type": "Point",
        "coordinates": [
          104.5412506565469,
          -78.60665828879954
        ]
      }
    },
    {
      "type": "Feature",
      "properties": {
        "norad_id": 60182,
        "name": "ALOS-4 (DAICHI-4)",
        "group": "resource",
        "lat": 13.366553398600983,
        "lon": 81.78149510514272,
        "alt_km": 631.7570763641561,
        "timestamp": "2025-12-14T20:40:31.425768+00:00",
        "meta_object_name": "ALOS-4 (DAICHI-4)",
        "meta_object_id": "2024-123A",
        "meta_epoch": "2025-12-10T20:50:51.532800",
        "meta_mean_motion": 14.79478132,
        "meta_eccentricity": 0.0001419,
        "meta_inclination": 97.9225,
        "meta_ra_of_asc_node": 79.7424,
        "meta_arg_of_pericenter": 101.2045,
        "meta_mean_anomaly": 258.9326,
        "meta_ephemeris_type": 0,
        "meta_classification_type": "U",
        "meta_norad_cat_id": 60182,
        "meta_element_set_no": 999,
        "meta_rev_at_epoch": 7803,
        "meta_bstar": 0.00039567,
        "meta_mean_motion_dot": 2.905e-05,
        "meta_mean_motion_ddot": 0,
        "tle_line1": "1 60182U 24123A   25344.86865200  .00002905  00000+0  39567-3 0  9990",
        "tle_line2": "2 60182  97.9225  79.7424 0001419 101.2045 258.9326 14.79478132 78033"
      },
      "geometry": {
        "type": "Point",
        "coordinates": [
          81.78149510514272,
          13.366553398600983
        ]
      }
    },
    {
      "type": "Feature",
      "properties": {
        "norad_id": 60452,
        "name": "LEGION 3",
        "group": "resource",
        "lat": -13.425439577092508,
        "lon": -75.0624643305976,
        "alt_km": 526.8805763699011,
        "timestamp": "2025-12-14T20:40:31.425779+00:00",
        "meta_object_name": "LEGION 3",
        "meta_object_id": "2024-146A",
        "meta_epoch": "2025-12-14T06:31:28.888032",
        "meta_mean_motion": 15.15783472,
        "meta_eccentricity": 0.00150312,
        "meta_inclination": 45.0016,
        "meta_ra_of_asc_node": 301.919,
        "meta_arg_of_pericenter": 206.9208,
        "meta_mean_anomaly": 153.0892,
        "meta_ephemeris_type": 0,
        "meta_classification_type": "U",
        "meta_norad_cat_id": 60452,
        "meta_element_set_no": 999,
        "meta_rev_at_epoch": 7396,
        "meta_bstar": 0.00034438953,
        "meta_mean_motion_dot": 6.443e-05,
        "meta_mean_motion_ddot": 0,
        "tle_line1": "1 60452U 24146A   25348.27186213  .00006443  00000+0  34439-3 0  9998",
        "tle_line2": "2 60452  45.0016 301.9190 0015031 206.9208 153.0892 15.15783472 73961"
      },
      "geometry": {
        "type": "Point",
        "coordinates": [
          -75.0624643305976,
          -13.425439577092508
        ]
      }
    },
    {
      "type": "Feature",
      "properties": {
        "norad_id": 60453,
        "name": "LEGION 4",
        "group": "resource",
        "lat": -15.379585089876446,
        "lon": 14.559254104400933,
        "alt_km": 513.9425495028036,
        "timestamp": "2025-12-14T20:40:31.425789+00:00",
        "meta_object_name": "LEGION 4",
        "meta_object_id": "2024-146B",
        "meta_epoch": "2025-12-14T06:32:14.413056",
        "meta_mean_motion": 15.15846404,
        "meta_eccentricity": 0.0009352,
        "meta_inclination": 45.0397,
        "meta_ra_of_asc_node": 33.6715,
        "meta_arg_of_pericenter": 318.9925,
        "meta_mean_anomaly": 41.025,
        "meta_ephemeris_type": 0,
        "meta_classification_type": "U",
        "meta_norad_cat_id": 60453,
        "meta_element_set_no": 999,
        "meta_rev_at_epoch": 7281,
        "meta_bstar": 0.00033056386,
        "meta_mean_motion_dot": 6.175e-05,
        "meta_mean_motion_ddot": 0,
        "tle_line1": "1 60453U 24146B   25348.27238904  .00006175  00000+0  33056-3 0  9990",
        "tle_line2": "2 60453  45.0397  33.6715 0009352 318.9925  41.0250 15.15846404 72817"
      },
      "geometry": {
        "type": "Point",
        "coordinates": [
          14.559254104400933,
          -15.379585089876446
        ]
      }
    },
    {
      "type": "Feature",
      "properties": {
        "norad_id": 60989,
        "name": "SENTINEL-2C",
        "group": "resource",
        "lat": 52.833233163380875,
        "lon": -107.2159525685683,
        "alt_km": 783.279506547412,
        "timestamp": "2025-12-14T20:40:31.425800+00:00",
        "meta_object_name": "SENTINEL-2C",
        "meta_object_id": "2024-157A",
        "meta_epoch": "2025-12-14T04:58:57.448704",
        "meta_mean_motion": 14.30818173,
        "meta_eccentricity": 0.00012042,
        "meta_inclination": 98.5682,
        "meta_ra_of_asc_node": 60.6691,
        "meta_arg_of_pericenter": 97.3326,
        "meta_mean_anomaly": 262.7994,
        "meta_ephemeris_type": 0,
        "meta_classification_type": "U",
        "meta_norad_cat_id": 60989,
        "meta_element_set_no": 999,
        "meta_rev_at_epoch": 6653,
        "meta_bstar": 8.5816292e-05,
        "meta_mean_motion_dot": 1.81e-06,
        "meta_mean_motion_ddot": 0,
        "tle_line1": "1 60989U 24157A   25348.20760936  .00000181  00000+0  85816-4 0  9997",
        "tle_line2": "2 60989  98.5682  60.6691 0001204  97.3326 262.7994 14.30818173 66532"
      },
      "geometry": {
        "type": "Point",
        "coordinates": [
          -107.2159525685683,
          52.833233163380875
        ]
      }
    },
    {
      "type": "Feature",
      "properties": {
        "norad_id": 61735,
        "name": "IONOSFERA-M 1",
        "group": "resource",
        "lat": -28.921475999703468,
        "lon": -136.43084599345872,
        "alt_km": 821.5749394250734,
        "timestamp": "2025-12-14T20:40:31.425810+00:00",
        "meta_object_name": "IONOSFERA-M 1",
        "meta_object_id": "2024-199A",
        "meta_epoch": "2025-12-14T07:18:35.358624",
        "meta_mean_motion": 14.22714392,
        "meta_eccentricity": 8.869e-05,
        "meta_inclination": 98.7403,
        "meta_ra_of_asc_node": 218.1408,
        "meta_arg_of_pericenter": 19.5825,
        "meta_mean_anomaly": 340.5387,
        "meta_ephemeris_type": 0,
        "meta_classification_type": "U",
        "meta_norad_cat_id": 61735,
        "meta_element_set_no": 999,
        "meta_rev_at_epoch": 10141,
        "meta_bstar": 5.5121984e-05,
        "meta_mean_motion_dot": 7.9e-07,
        "meta_mean_motion_ddot": 0,
        "tle_line1": "1 61735U 24199A   25348.30457591  .00000079  00000+0  55122-4 0  9997",
        "tle_line2": "2 61735  98.7403 218.1408 0000886  19.5825 340.5387 14.22714392101413"
      },
      "geometry": {
        "type": "Point",
        "coordinates": [
          -136.43084599345872,
          -28.921475999703468
        ]
      }
    },
    {
      "type": "Feature",
      "properties": {
        "norad_id": 61736,
        "name": "IONOSFERA-M 2",
        "group": "resource",
        "lat": 26.054422473599946,
        "lon": 42.91914711838461,
        "alt_km": 814.3923700413998,
        "timestamp": "2025-12-14T20:40:31.425819+00:00",
        "meta_object_name": "IONOSFERA-M 2",
        "meta_object_id": "2024-199B",
        "meta_epoch": "2025-12-14T08:08:28.610592",
        "meta_mean_motion": 14.22716615,
        "meta_eccentricity": 0.00016842,
        "meta_inclination": 98.7402,
        "meta_ra_of_asc_node": 218.0877,
        "meta_arg_of_pericenter": 108.1915,
        "meta_mean_anomaly": 251.9447,
        "meta_ephemeris_type": 0,
        "meta_classification_type": "U",
        "meta_norad_cat_id": 61736,
        "meta_element_set_no": 999,
        "meta_rev_at_epoch": 10454,
        "meta_bstar": 5.8247423e-05,
        "meta_mean_motion_dot": 8.6e-07,
        "meta_mean_motion_ddot": 0,
        "tle_line1": "1 61736U 24199B   25348.33922003  .00000086  00000+0  58247-4 0  9995",
        "tle_line2": "2 61736  98.7402 218.0877 0001684 108.1915 251.9447 14.22716615104543"
      },
      "geometry": {
        "type": "Point",
        "coordinates": [
          42.91914711838461,
          26.054422473599946
        ]
      }
    }
  ]
}